APRIZESAT 2             
1 28366U 04025A   22361.45839608  .00000146  00000+0  59356-4 0  9995
2 28366  98.1364 220.4525 0108559 114.2010 247.0569 14.36887864969535
SAUDICOMSAT 1           
1 28369U 04025D   22361.33888605  .00000436  00000+0  11678-3 0  9992
2 28369  98.4687 324.4723 0032443 305.7715  54.0465 14.52954148979856
SAUDICOMSAT 2           
1 28370U 04025E   22361.36475415  .00000288  00000+0  88662-4 0  9991
2 28370  98.5606 324.0002 0058310 136.5992 223.9813 14.47834870976544
APRIZESAT 1             
1 28372U 04025G   22360.87191140  .00000342  00000+0  99511-4 0  9994
2 28372  98.5215 323.5219 0047048  51.0517 309.4855 14.49917201977983
NANOSAT-1               
1 28493U 04049B   22361.55225324  .00000941  00000+0  14986-3 0  9999
2 28493  98.1188 102.5703 0005310  48.2079 311.9582 14.74312099968316
SAUDICOMSAT 7           
1 31119U 07012C   22360.91969399  .00000553  00000+0  11668-3 0  9990
2 31119  98.2090 305.2071 0058837 207.5773 152.2304 14.62314216836830
SAUDICOMSAT 6           
1 31121U 07012E   22361.56773543  .00000729  00000+0  15963-3 0  9996
2 31121  98.2481 301.0963 0075123 312.7718  46.7178 14.59077549835102
SAUDICOMSAT 5           
1 31124U 07012H   22361.57912412  .00000586  00000+0  11892-3 0  9998
2 31124  98.1785 307.2710 0051698 149.6742 210.7470 14.64055701837847
SAUDICOMSAT 3           
1 31125U 07012J   22361.12316731  .00000773  00000+0  14836-3 0  9991
2 31125  98.1443 308.0862 0044092  96.4219 264.2008 14.65909917838732
SAUDICOMSAT 4           
1 31127U 07012L   22361.32595915  .00000578  00000+0  12485-3 0  9999
2 31127  98.2312 304.0422 0066175 257.1673 102.2128 14.60819467836034
APRIZESAT 4             
1 35684U 09041D   22361.01827452  .00000646  00000+0  91625-4 0  9995
2 35684  98.3011  21.1979 0047895  93.8234 266.8455 14.79888246723545
APRIZESAT 3             
1 35686U 09041F   22361.48062695  .00001340  00000+0  14503-3 0  9999
2 35686  98.1020  92.4235 0070205 275.5095  83.8116 14.88337849727314
AISSAT 1                
1 36797U 10035C   22361.53239991  .00001801  00000+0  20430-3 0  9997
2 36797  98.2331 192.6898 0009544 262.1890  97.8241 14.87656862675140
S-NET D                 
1 43186U 18014G   22360.97066780  .00002419  00000+0  20543-3 0  9994
2 43186  97.6490 262.9596 0011694  19.5956 340.5714 14.98767467267743
S-NET B                 
1 43187U 18014H   22360.77081660  .00002333  00000+0  19837-3 0  9996
2 43187  97.6483 262.7053 0011714  20.0493 340.1188 14.98762836267711
S-NET A                 
1 43188U 18014J   22360.77111142  .00002309  00000+0  19635-3 0  9995
2 43188  97.6491 262.7809 0011722  20.0394 340.1287 14.98763168267718
S-NET C                 
1 43189U 18014K   22360.97254290  .00002273  00000+0  19339-3 0  9991
2 43189  97.6481 262.8893 0011660  18.6357 341.5290 14.98757863266291
SALSAT                  
1 46495U 20068K   22361.57883943  .00003999  00000+0  28123-3 0  9993
2 46495  97.7527 303.2609 0015900 349.5430  10.5463 15.05573289123238
